STARLINK-34694          
1 66189U 25243N   25318.59426352 -.00605185  00000+0 -45486-2 0  9996
2 66189  53.1574  61.8969 0000707 132.1657 227.9423 15.73593578  3000
STARLINK-34863          
1 66190U 25243P   25319.50003471 -.01965154  00000+0 -18581-1 0  9994
2 66190  53.1594  57.4369 0001285  57.8487  21.1803 15.69409297  4203
STARLINK-35061          
1 66191U 25243Q   25319.50003471 -.01963704  00000+0 -18567-1 0  9998
2 66191  53.1597  57.3981 0001333  65.6505  32.5486 15.69407878  4259
STARLINK-34937          
1 66192U 25243R   25318.78314206 -.00092230  00000+0 -65265-3 0  9994
2 66192  53.1582  60.9404 0001694  51.1444 308.9726 15.73455685  3032
STARLINK-35197          
1 66193U 25243S   25319.50003471 -.01955654  00000+0 -18486-1 0  9995
2 66193  53.1597  57.4055 0001347  64.3248  30.0463 15.69400037  4202
STARLINK-35374          
1 66194U 25243T   25319.50003471 -.01964908  00000+0 -18579-1 0  9991
2 66194  53.1599  57.4092 0001281  64.0371  28.4115 15.69408686  4200
STARLINK-34813          
1 66195U 25243U   25319.50003471 -.01965629  00000+0 -18586-1 0  9991
2 66195  53.1597  57.4138 0001252  58.2561  32.2739 15.69409775  4209
STARLINK-35409          
1 66196U 25243V   25319.50003471 -.01965383  00000+0 -18584-1 0  9997
2 66196  53.1596  57.4179 0001279  61.3677  27.2463 15.69409276  4200
STARLINK-35518          
1 66197U 25243X   25318.78518822 -.00233180  00000+0 -16950-2 0  9996
2 66197  53.1576  60.9543 0000998  47.7641 312.3463 15.73315042  3039
STARLINK-35259          
1 66198U 25243W   25319.50003471 -.01959815  00000+0 -18526-1 0  9998
2 66198  53.1600  57.3443 0001334  64.6918  58.4264 15.69405907  4209
STARLINK-35509          
1 66199U 25243Y   25318.65103228 -.00625536  00000+0 -47450-2 0  9993
2 66199  53.1584  61.5349 0000952  31.4877 328.6200 15.73435594  3014
STARLINK-35551          
1 66200U 25243Z   25319.50003471 -.01966628  00000+0 -18598-1 0  9991
2 66200  53.1600  57.3486 0001301  65.9970  55.2069 15.69408416  4202
