CCSDS_OMM_VERS = 2.0
CREATION_DATE  = 
ORIGINATOR     = 

OBJECT_NAME    = STARLINK-34694
OBJECT_ID      = 2025-243N
CENTER_NAME    = EARTH
REF_FRAME      = TEME
TIME_SYSTEM    = UTC
MEAN_ELEMENT_THEORY = SGP/SGP4

EPOCH          = 2025-11-14T14:15:44.368128
MEAN_MOTION    = 15.73593578
ECCENTRICITY   = .0000707
INCLINATION    = 53.1574
RA_OF_ASC_NODE = 61.8969
ARG_OF_PERICENTER = 132.1657
MEAN_ANOMALY   = 227.9423

EPHEMERIS_TYPE = 0
CLASSIFICATION_TYPE = U
NORAD_CAT_ID   = 66189
ELEMENT_SET_NO = 999
REV_AT_EPOCH   = 300
BSTAR          = -.45486E-2
MEAN_MOTION_DOT = -.605185E-2
MEAN_MOTION_DDOT = 0

CCSDS_OMM_VERS = 2.0
CREATION_DATE  = 
ORIGINATOR     = 

OBJECT_NAME    = STARLINK-34863
OBJECT_ID      = 2025-243P
CENTER_NAME    = EARTH
REF_FRAME      = TEME
TIME_SYSTEM    = UTC
MEAN_ELEMENT_THEORY = SGP/SGP4

EPOCH          = 2025-11-15T12:00:02.998944
MEAN_MOTION    = 15.69409297
ECCENTRICITY   = .0001285
INCLINATION    = 53.1594
RA_OF_ASC_NODE = 57.4369
ARG_OF_PERICENTER = 57.8487
MEAN_ANOMALY   = 21.1803

EPHEMERIS_TYPE = 0
CLASSIFICATION_TYPE = U
NORAD_CAT_ID   = 66190
ELEMENT_SET_NO = 999
REV_AT_EPOCH   = 420
BSTAR          = -.18581E-1
MEAN_MOTION_DOT = -.1965154E-1
MEAN_MOTION_DDOT = 0

CCSDS_OMM_VERS = 2.0
CREATION_DATE  = 
ORIGINATOR     = 

OBJECT_NAME    = STARLINK-35061
OBJECT_ID      = 2025-243Q
CENTER_NAME    = EARTH
REF_FRAME      = TEME
TIME_SYSTEM    = UTC
MEAN_ELEMENT_THEORY = SGP/SGP4

EPOCH          = 2025-11-15T12:00:02.998944
MEAN_MOTION    = 15.69407878
ECCENTRICITY   = .0001333
INCLINATION    = 53.1597
RA_OF_ASC_NODE = 57.3981
ARG_OF_PERICENTER = 65.6505
MEAN_ANOMALY   = 32.5486

EPHEMERIS_TYPE = 0
CLASSIFICATION_TYPE = U
NORAD_CAT_ID   = 66191
ELEMENT_SET_NO = 999
REV_AT_EPOCH   = 425
BSTAR          = -.18567E-1
MEAN_MOTION_DOT = -.1963704E-1
MEAN_MOTION_DDOT = 0

CCSDS_OMM_VERS = 2.0
CREATION_DATE  = 
ORIGINATOR     = 

OBJECT_NAME    = STARLINK-34937
OBJECT_ID      = 2025-243R
CENTER_NAME    = EARTH
REF_FRAME      = TEME
TIME_SYSTEM    = UTC
MEAN_ELEMENT_THEORY = SGP/SGP4

EPOCH          = 2025-11-14T18:47:43.473984
MEAN_MOTION    = 15.73455685
ECCENTRICITY   = .0001694
INCLINATION    = 53.1582
RA_OF_ASC_NODE = 60.9404
ARG_OF_PERICENTER = 51.1444
MEAN_ANOMALY   = 308.9726

EPHEMERIS_TYPE = 0
CLASSIFICATION_TYPE = U
NORAD_CAT_ID   = 66192
ELEMENT_SET_NO = 999
REV_AT_EPOCH   = 303
BSTAR          = -.65265E-3
MEAN_MOTION_DOT = -.9223E-3
MEAN_MOTION_DDOT = 0

CCSDS_OMM_VERS = 2.0
CREATION_DATE  = 
ORIGINATOR     = 

OBJECT_NAME    = STARLINK-35197
OBJECT_ID      = 2025-243S
CENTER_NAME    = EARTH
REF_FRAME      = TEME
TIME_SYSTEM    = UTC
MEAN_ELEMENT_THEORY = SGP/SGP4

EPOCH          = 2025-11-15T12:00:02.998944
MEAN_MOTION    = 15.69400037
ECCENTRICITY   = .0001347
INCLINATION    = 53.1597
RA_OF_ASC_NODE = 57.4055
ARG_OF_PERICENTER = 64.3248
MEAN_ANOMALY   = 30.0463

EPHEMERIS_TYPE = 0
CLASSIFICATION_TYPE = U
NORAD_CAT_ID   = 66193
ELEMENT_SET_NO = 999
REV_AT_EPOCH   = 420
BSTAR          = -.18486E-1
MEAN_MOTION_DOT = -.1955654E-1
MEAN_MOTION_DDOT = 0

CCSDS_OMM_VERS = 2.0
CREATION_DATE  = 
ORIGINATOR     = 

OBJECT_NAME    = STARLINK-35374
OBJECT_ID      = 2025-243T
CENTER_NAME    = EARTH
REF_FRAME      = TEME
TIME_SYSTEM    = UTC
MEAN_ELEMENT_THEORY = SGP/SGP4

EPOCH          = 2025-11-15T12:00:02.998944
MEAN_MOTION    = 15.69408686
ECCENTRICITY   = .0001281
INCLINATION    = 53.1599
RA_OF_ASC_NODE = 57.4092
ARG_OF_PERICENTER = 64.0371
MEAN_ANOMALY   = 28.4115

EPHEMERIS_TYPE = 0
CLASSIFICATION_TYPE = U
NORAD_CAT_ID   = 66194
ELEMENT_SET_NO = 999
REV_AT_EPOCH   = 420
BSTAR          = -.18579E-1
MEAN_MOTION_DOT = -.1964908E-1
MEAN_MOTION_DDOT = 0

CCSDS_OMM_VERS = 2.0
CREATION_DATE  = 
ORIGINATOR     = 

OBJECT_NAME    = STARLINK-34813
OBJECT_ID      = 2025-243U
CENTER_NAME    = EARTH
REF_FRAME      = TEME
TIME_SYSTEM    = UTC
MEAN_ELEMENT_THEORY = SGP/SGP4

EPOCH          = 2025-11-15T12:00:02.998944
MEAN_MOTION    = 15.69409775
ECCENTRICITY   = .0001252
INCLINATION    = 53.1597
RA_OF_ASC_NODE = 57.4138
ARG_OF_PERICENTER = 58.2561
MEAN_ANOMALY   = 32.2739

EPHEMERIS_TYPE = 0
CLASSIFICATION_TYPE = U
NORAD_CAT_ID   = 66195
ELEMENT_SET_NO = 999
REV_AT_EPOCH   = 420
BSTAR          = -.18586E-1
MEAN_MOTION_DOT = -.1965629E-1
MEAN_MOTION_DDOT = 0

CCSDS_OMM_VERS = 2.0
CREATION_DATE  = 
ORIGINATOR     = 

OBJECT_NAME    = STARLINK-35409
OBJECT_ID      = 2025-243V
CENTER_NAME    = EARTH
REF_FRAME      = TEME
TIME_SYSTEM    = UTC
MEAN_ELEMENT_THEORY = SGP/SGP4

EPOCH          = 2025-11-15T12:00:02.998944
MEAN_MOTION    = 15.69409276
ECCENTRICITY   = .0001279
INCLINATION    = 53.1596
RA_OF_ASC_NODE = 57.4179
ARG_OF_PERICENTER = 61.3677
MEAN_ANOMALY   = 27.2463

EPHEMERIS_TYPE = 0
CLASSIFICATION_TYPE = U
NORAD_CAT_ID   = 66196
ELEMENT_SET_NO = 999
REV_AT_EPOCH   = 420
BSTAR          = -.18584E-1
MEAN_MOTION_DOT = -.1965383E-1
MEAN_MOTION_DDOT = 0

CCSDS_OMM_VERS = 2.0
CREATION_DATE  = 
ORIGINATOR     = 

OBJECT_NAME    = STARLINK-35518
OBJECT_ID      = 2025-243X
CENTER_NAME    = EARTH
REF_FRAME      = TEME
TIME_SYSTEM    = UTC
MEAN_ELEMENT_THEORY = SGP/SGP4

EPOCH          = 2025-11-14T18:50:40.262208
MEAN_MOTION    = 15.73315042
ECCENTRICITY   = .0000998
INCLINATION    = 53.1576
RA_OF_ASC_NODE = 60.9543
ARG_OF_PERICENTER = 47.7641
MEAN_ANOMALY   = 312.3463

EPHEMERIS_TYPE = 0
CLASSIFICATION_TYPE = U
NORAD_CAT_ID   = 66197
ELEMENT_SET_NO = 999
REV_AT_EPOCH   = 303
BSTAR          = -.1695E-2
MEAN_MOTION_DOT = -.23318E-2
MEAN_MOTION_DDOT = 0

CCSDS_OMM_VERS = 2.0
CREATION_DATE  = 
ORIGINATOR     = 

OBJECT_NAME    = STARLINK-35259
OBJECT_ID      = 2025-243W
CENTER_NAME    = EARTH
REF_FRAME      = TEME
TIME_SYSTEM    = UTC
MEAN_ELEMENT_THEORY = SGP/SGP4

EPOCH          = 2025-11-15T12:00:02.998944
MEAN_MOTION    = 15.69405907
ECCENTRICITY   = .0001334
INCLINATION    = 53.1600
RA_OF_ASC_NODE = 57.3443
ARG_OF_PERICENTER = 64.6918
MEAN_ANOMALY   = 58.4264

EPHEMERIS_TYPE = 0
CLASSIFICATION_TYPE = U
NORAD_CAT_ID   = 66198
ELEMENT_SET_NO = 999
REV_AT_EPOCH   = 420
BSTAR          = -.18526E-1
MEAN_MOTION_DOT = -.1959815E-1
MEAN_MOTION_DDOT = 0

CCSDS_OMM_VERS = 2.0
CREATION_DATE  = 
ORIGINATOR     = 

OBJECT_NAME    = STARLINK-35509
OBJECT_ID      = 2025-243Y
CENTER_NAME    = EARTH
REF_FRAME      = TEME
TIME_SYSTEM    = UTC
MEAN_ELEMENT_THEORY = SGP/SGP4

EPOCH          = 2025-11-14T15:37:29.188992
MEAN_MOTION    = 15.73435594
ECCENTRICITY   = .0000952
INCLINATION    = 53.1584
RA_OF_ASC_NODE = 61.5349
ARG_OF_PERICENTER = 31.4877
MEAN_ANOMALY   = 328.6200

EPHEMERIS_TYPE = 0
CLASSIFICATION_TYPE = U
NORAD_CAT_ID   = 66199
ELEMENT_SET_NO = 999
REV_AT_EPOCH   = 301
BSTAR          = -.4745E-2
MEAN_MOTION_DOT = -.625536E-2
MEAN_MOTION_DDOT = 0

CCSDS_OMM_VERS = 2.0
CREATION_DATE  = 
ORIGINATOR     = 

OBJECT_NAME    = STARLINK-35551
OBJECT_ID      = 2025-243Z
CENTER_NAME    = EARTH
REF_FRAME      = TEME
TIME_SYSTEM    = UTC
MEAN_ELEMENT_THEORY = SGP/SGP4

EPOCH          = 2025-11-15T12:00:02.998944
MEAN_MOTION    = 15.69408416
ECCENTRICITY   = .0001301
INCLINATION    = 53.1600
RA_OF_ASC_NODE = 57.3486
ARG_OF_PERICENTER = 65.9970
MEAN_ANOMALY   = 55.2069

EPHEMERIS_TYPE = 0
CLASSIFICATION_TYPE = U
NORAD_CAT_ID   = 66200
ELEMENT_SET_NO = 999
REV_AT_EPOCH   = 420
BSTAR          = -.18598E-1
MEAN_MOTION_DOT = -.1966628E-1
MEAN_MOTION_DDOT = 0

